[
    {
        "Altitude(m)": 617710.6271313725,
        "Argument of Periapsis(deg)": 0.0,
        "Eccentricity": 0.0,
        "Inclination(deg)": 60.0,
        "Latitude(deg)": -41.10262622213109,
        "Longitude(deg)": 99.96665489578632,
        "Mean Anomaly(deg)": -49.09089999999989,
        "RAAN(deg)": 229.99999999999997,
        "Satellite Name": "Test1 1031",
        "Satellite Number": 1031,
        "Semi-Major Axis(m)": 6980739.136638005,
        "Time(s)": 0
    },
    {
        "Altitude(m)": 617517.925563099,
        "Argument of Periapsis(deg)": 0.00010418945913296404,
        "Eccentricity": 0.0,
        "Inclination(deg)": 60.0,
        "Latitude(deg)": -40.63683292554653,
        "Longitude(deg)": 100.46344784586113,
        "Mean Anomaly(deg)": -48.47079385453804,
        "RAAN(deg)": 229.99957995086024,
        "Satellite Name": "Test1 1031",
        "Satellite Number": 1031,
        "Semi-Major Axis(m)": 6980739.136638005,
        "Time(s)": 10
    }
]